{"type": "FeatureCollection", "features": [{"type": "Feature", "properties": {"norad_id": 36828, "name": "BEIDOU-2 IGSO-1 (C06)", "group": "beidou", "lat": -35.88214880773617, "lon": 133.19923320640626, "alt_km": 35818.148836123975, "timestamp": "2025-12-15T19:00:45.621082+00:00", "meta": {"OBJECT_NAME": "BEIDOU-2 IGSO-1 (C06)", "OBJECT_ID": "2010-036A", "EPOCH": "2025-12-14T21:38:21.623424", "MEAN_MOTION": 1.00275796, "ECCENTRICITY": 0.00512569, "INCLINATION": 54.2866, "RA_OF_ASC_NODE": 164.6279, "ARG_OF_PERICENTER": 215.8888, "MEAN_ANOMALY": 135.7931, "EPHEMERIS_TYPE": 0, "CLASSIFICATION_TYPE": "U", "NORAD_CAT_ID": 36828, "ELEMENT_SET_NO": 999, "REV_AT_EPOCH": 5624, "BSTAR": 0, "MEAN_MOTION_DOT": -2.4e-07, "MEAN_MOTION_DDOT": 0}, "tle": {"line1": "1 36828U 10036A   25348.90163916 -.00000024  00000+0  00000+0 0  9999", "line2": "2 36828  54.2866 164.6279 0051256 215.8888 135.7931  1.00275796 56247"}}, "geometry": {"type": "Point", "coordinates": [133.19923320640626, -35.88214880773617]}}, {"type": "Feature", "properties": {"norad_id": 37210, "name": "BEIDOU-2 G4 (C04)", "group": "beidou", "lat": 3.1417237078125613, "lon": 169.84401186470018, "alt_km": 35787.14074283495, "timestamp": "2025-12-15T19:00:45.621105+00:00", "meta": {"OBJECT_NAME": "BEIDOU-2 G4 (C04)", "OBJECT_ID": "2010-057A", "EPOCH": "2025-12-14T21:01:39.976032", "MEAN_MOTION": 1.00271828, "ECCENTRICITY": 0.0010669, "INCLINATION": 3.1901, "RA_OF_ASC_NODE": 69.9323, "ARG_OF_PERICENTER": 191.8324, "MEAN_ANOMALY": 297.5165, "EPHEMERIS_TYPE": 0, "CLASSIFICATION_TYPE": "U", "NORAD_CAT_ID": 37210, "ELEMENT_SET_NO": 999, "REV_AT_EPOCH": 5544, "BSTAR": 0, "MEAN_MOTION_DOT": -9.3e-07, "MEAN_MOTION_DDOT": 0}, "tle": {"line1": "1 37210U 10057A   25348.87615713 -.00000093  00000+0  00000+0 0  9997", "line2": "2 37210   3.1901  69.9323 0010669 191.8324 297.5165  1.00271828 55443"}}, "geometry": {"type": "Point", "coordinates": [169.84401186470018, 3.1417237078125613]}}, {"type": "Feature", "properties": {"norad_id": 37256, "name": "BEIDOU-2 IGSO-2 (C07)", "group": "beidou", "lat": -17.154202548003184, "lon": 110.26607280135146, "alt_km": 35585.281102468194, "timestamp": "2025-12-15T19:00:45.621120+00:00", "meta": {"OBJECT_NAME": "BEIDOU-2 IGSO-2 (C07)", "OBJECT_ID": "2010-068A", "EPOCH": "2025-12-14T17:43:21.584928", "MEAN_MOTION": 1.00286059, "ECCENTRICITY": 0.00486596, "INCLINATION": 47.8819, "RA_OF_ASC_NODE": 274.1236, "ARG_OF_PERICENTER": 216.4437, "MEAN_ANOMALY": 326.6295, "EPHEMERIS_TYPE": 0, "CLASSIFICATION_TYPE": "U", "NORAD_CAT_ID": 37256, "ELEMENT_SET_NO": 999, "REV_AT_EPOCH": 5494, "BSTAR": 0, "MEAN_MOTION_DOT": -2.25e-06, "MEAN_MOTION_DDOT": 0}, "tle": {"line1": "1 37256U 10068A   25348.73844427 -.00000225  00000+0  00000+0 0  9997", "line2": "2 37256  47.8819 274.1236 0048659 216.4437 326.6295  1.00286059 54942"}}, "geometry": {"type": "Point", "coordinates": [110.26607280135146, -17.154202548003184]}}, {"type": "Feature", "properties": {"norad_id": 37384, "name": "BEIDOU-2 IGSO-3 (C08)", "group": "beidou", "lat": 58.68825501383251, "lon": 102.14251982386892, "alt_km": 35838.065782794634, "timestamp": "2025-12-15T19:00:45.621133+00:00", "meta": {"OBJECT_NAME": "BEIDOU-2 IGSO-3 (C08)", "OBJECT_ID": "2011-013A", "EPOCH": "2025-12-14T15:18:38.168064", "MEAN_MOTION": 1.00270472, "ECCENTRICITY": 0.00354241, "INCLINATION": 62.1463, "RA_OF_ASC_NODE": 41.8972, "ARG_OF_PERICENTER": 187.6123, "MEAN_ANOMALY": 191.2166, "EPHEMERIS_TYPE": 0, "CLASSIFICATION_TYPE": "U", "NORAD_CAT_ID": 37384, "ELEMENT_SET_NO": 999, "REV_AT_EPOCH": 5381, "BSTAR": 0, "MEAN_MOTION_DOT": -1.94e-06, "MEAN_MOTION_DDOT": 0}, "tle": {"line1": "1 37384U 11013A   25348.63794176 -.00000194  00000+0  00000+0 0  9999", "line2": "2 37384  62.1463  41.8972 0035424 187.6123 191.2166  1.00270472 53812"}}, "geometry": {"type": "Point", "coordinates": [102.14251982386892, 58.68825501383251]}}, {"type": "Feature", "properties": {"norad_id": 37763, "name": "BEIDOU-2 IGSO-4 (C09)", "group": "beidou", "lat": -45.61044777215271, "lon": 120.59514334317525, "alt_km": 35548.22413025971, "timestamp": "2025-12-15T19:00:45.621146+00:00", "meta": {"OBJECT_NAME": "BEIDOU-2 IGSO-4 (C09)", "OBJECT_ID": "2011-038A", "EPOCH": "2025-12-10T12:04:03.489024", "MEAN_MOTION": 1.00284678, "ECCENTRICITY": 0.01490344, "INCLINATION": 54.5829, "RA_OF_ASC_NODE": 167.3658, "ARG_OF_PERICENTER": 230.2355, "MEAN_ANOMALY": 317.2212, "EPHEMERIS_TYPE": 0, "CLASSIFICATION_TYPE": "U", "NORAD_CAT_ID": 37763, "ELEMENT_SET_NO": 999, "REV_AT_EPOCH": 5275, "BSTAR": 0, "MEAN_MOTION_DOT": 3.6e-07, "MEAN_MOTION_DDOT": 0}, "tle": {"line1": "1 37763U 11038A   25344.50281816  .00000036  00000+0  00000+0 0  9995", "line2": "2 37763  54.5829 167.3658 0149034 230.2355 317.2212  1.00284678 52751"}}, "geometry": {"type": "Point", "coordinates": [120.59514334317525, -45.61044777215271]}}, {"type": "Feature", "properties": {"norad_id": 37948, "name": "BEIDOU-2 IGSO-5 (C10)", "group": "beidou", "lat": -6.348019769928578, "lon": 99.5300561841982, "alt_km": 35395.0179322627, "timestamp": "2025-12-15T19:00:45.621159+00:00", "meta": {"OBJECT_NAME": "BEIDOU-2 IGSO-5 (C10)", "OBJECT_ID": "2011-073A", "EPOCH": "2025-12-12T18:24:47.608416", "MEAN_MOTION": 1.00291151, "ECCENTRICITY": 0.01101752, "INCLINATION": 48.0199, "RA_OF_ASC_NODE": 273.857, "ARG_OF_PERICENTER": 222.308, "MEAN_ANOMALY": 314.7254, "EPHEMERIS_TYPE": 0, "CLASSIFICATION_TYPE": "U", "NORAD_CAT_ID": 37948, "ELEMENT_SET_NO": 999, "REV_AT_EPOCH": 5126, "BSTAR": 0, "MEAN_MOTION_DOT": -2.21e-06, "MEAN_MOTION_DDOT": 0}, "tle": {"line1": "1 37948U 11073A   25346.76721769 -.00000221  00000+0  00000+0 0  9992", "line2": "2 37948  48.0199 273.8570 0110175 222.3080 314.7254  1.00291151 51268"}}, "geometry": {"type": "Point", "coordinates": [99.5300561841982, -6.348019769928578]}}, {"type": "Feature", "properties": {"norad_id": 38091, "name": "BEIDOU-2 G5 (C05)", "group": "beidou", "lat": -0.07894624146021198, "lon": 68.82804882755993, "alt_km": 35818.400186323015, "timestamp": "2025-12-15T19:00:45.621172+00:00", "meta": {"OBJECT_NAME": "BEIDOU-2 G5 (C05)", "OBJECT_ID": "2012-008A", "EPOCH": "2025-12-14T22:15:32.898240", "MEAN_MOTION": 1.00276646, "ECCENTRICITY": 0.00125198, "INCLINATION": 3.1149, "RA_OF_ASC_NODE": 70.7041, "ARG_OF_PERICENTER": 228.6209, "MEAN_ANOMALY": 177.2276, "EPHEMERIS_TYPE": 0, "CLASSIFICATION_TYPE": "U", "NORAD_CAT_ID": 38091, "ELEMENT_SET_NO": 999, "REV_AT_EPOCH": 5052, "BSTAR": 0, "MEAN_MOTION_DOT": 7.4e-07, "MEAN_MOTION_DDOT": 0}, "tle": {"line1": "1 38091U 12008A   25348.92746410  .00000074  00000+0  00000+0 0  9996", "line2": "2 38091   3.1149  70.7041 0012519 228.6209 177.2276  1.00276646 50523"}}, "geometry": {"type": "Point", "coordinates": [68.82804882755993, -0.07894624146021198]}}, {"type": "Feature", "properties": {"norad_id": 38250, "name": "BEIDOU-2 M3 (C11)", "group": "beidou", "lat": 14.355789875777749, "lon": 121.06135612043941, "alt_km": 21551.705584045838, "timestamp": "2025-12-15T19:00:45.621184+00:00", "meta": {"OBJECT_NAME": "BEIDOU-2 M3 (C11)", "OBJECT_ID": "2012-018A", "EPOCH": "2025-12-13T22:30:51.861600", "MEAN_MOTION": 1.86229879, "ECCENTRICITY": 0.00242907, "INCLINATION": 55.9188, "RA_OF_ASC_NODE": 311.1166, "ARG_OF_PERICENTER": 274.3199, "MEAN_ANOMALY": 85.3911, "EPHEMERIS_TYPE": 0, "CLASSIFICATION_TYPE": "U", "NORAD_CAT_ID": 38250, "ELEMENT_SET_NO": 999, "REV_AT_EPOCH": 9249, "BSTAR": 0, "MEAN_MOTION_DOT": -9.6e-07, "MEAN_MOTION_DDOT": 0}, "tle": {"line1": "1 38250U 12018A   25347.93810025 -.00000096  00000+0  00000+0 0  9993", "line2": "2 38250  55.9188 311.1166 0024290 274.3199  85.3911  1.86229879 92490"}}, "geometry": {"type": "Point", "coordinates": [121.06135612043941, 14.355789875777749]}}, {"type": "Feature", "properties": {"norad_id": 38251, "name": "BEIDOU-2 M4 (C12)", "group": "beidou", "lat": -23.109209571447366, "lon": 147.10934981440724, "alt_km": 21515.966242080685, "timestamp": "2025-12-15T19:00:45.621195+00:00", "meta": {"OBJECT_NAME": "BEIDOU-2 M4 (C12)", "OBJECT_ID": "2012-018B", "EPOCH": "2025-12-13T07:59:48.422112", "MEAN_MOTION": 1.86229462, "ECCENTRICITY": 0.00154528, "INCLINATION": 55.8208, "RA_OF_ASC_NODE": 310.3658, "ARG_OF_PERICENTER": 277.4494, "MEAN_ANOMALY": 82.3644, "EPHEMERIS_TYPE": 0, "CLASSIFICATION_TYPE": "U", "NORAD_CAT_ID": 38251, "ELEMENT_SET_NO": 999, "REV_AT_EPOCH": 9248, "BSTAR": 0, "MEAN_MOTION_DOT": -9.5e-07, "MEAN_MOTION_DDOT": 0}, "tle": {"line1": "1 38251U 12018B   25347.33319933 -.00000095  00000+0  00000+0 0  9999", "line2": "2 38251  55.8208 310.3658 0015452 277.4494  82.3644  1.86229462 92489"}}, "geometry": {"type": "Point", "coordinates": [147.10934981440724, -23.109209571447366]}}, {"type": "Feature", "properties": {"norad_id": 38775, "name": "BEIDOU-2 M6 (C14)", "group": "beidou", "lat": 34.273645939850375, "lon": 95.89325252017703, "alt_km": 21507.456964688437, "timestamp": "2025-12-15T19:00:45.621206+00:00", "meta": {"OBJECT_NAME": "BEIDOU-2 M6 (C14)", "OBJECT_ID": "2012-050B", "EPOCH": "2025-12-14T02:49:55.180128", "MEAN_MOTION": 1.86230875, "ECCENTRICITY": 0.0011244, "INCLINATION": 56.3796, "RA_OF_ASC_NODE": 69.0216, "ARG_OF_PERICENTER": 344.0149, "MEAN_ANOMALY": 15.9678, "EPHEMERIS_TYPE": 0, "CLASSIFICATION_TYPE": "U", "NORAD_CAT_ID": 38775, "ELEMENT_SET_NO": 999, "REV_AT_EPOCH": 8986, "BSTAR": 0, "MEAN_MOTION_DOT": -8.2e-07, "MEAN_MOTION_DDOT": 0}, "tle": {"line1": "1 38775U 12050B   25348.11799977 -.00000082  00000+0  00000+0 0  9999", "line2": "2 38775  56.3796  69.0216 0011244 344.0149  15.9678  1.86230875 89866"}}, "geometry": {"type": "Point", "coordinates": [95.89325252017703, 34.273645939850375]}}]}